ONEWEB-0361             
1 49287U 21090J   24063.55146152  .00000038  00000+0  60321-4 0  9992
2 49287  87.9124  80.7527 0002082  93.4821 266.6550 13.20772054119991
ONEWEB-0362             
1 49288U 21090K   24063.67617220 -.00000033  00000+0 -11514-3 0  9991
2 49288  87.9138 111.3064 0001653  91.8831 268.2492 13.19725744116712
ONEWEB-0363             
1 49289U 21090L   24063.49148468  .00000071  00000+0  14204-3 0  9994
2 49289  87.9125  80.7600 0002262 101.0127 259.1261 13.20772382119991
ONEWEB-0364             
1 49290U 21090M   24063.52936327  .00000122  00000+0  26770-3 0  9997
2 49290  87.9126  80.7757 0002081  87.1279 273.0093 13.20771846121139
ONEWEB-0365             
1 49291U 21090N   24063.68565138  .00000071  00000+0  14477-3 0  9997
2 49291  87.9131 111.2919 0001881  93.6110 266.5237 13.19725723116221
ONEWEB-0366             
1 49292U 21090P   24063.51037726 -.00000120  00000+0 -35890-3 0  9996
2 49292  87.8903  96.0431 0002124  92.3381 267.7992 13.14501663117776
ONEWEB-0367             
1 49293U 21090Q   24063.56566195  .00000007  00000+0 -14447-4 0  9998
2 49293  87.9125  80.7395 0002145  86.7130 273.4249 13.20771995119523
ONEWEB-0368             
1 49294U 21090R   24063.53883415  .00000120  00000+0  26208-3 0  9995
2 49294  87.9127  80.7740 0002812  87.0980 273.0475 13.20771900120679
